     2.100          NAVIGATION                              RINEX VERSION / TYPE
fic2rin                                 04/28/2009 01:57:12 PGM / RUN BY / DATE
                                                            END OF HEADER
23 09  4 27 14  0  0.0  .389698427171D-03  .227373675443D-12  .000000000000D+00
     .280000000000D+02 -.524687500000D+02  .451661670664D-08  .918574542088D-01
    -.298582017422D-05  .598440202884D-02  .433996319771D-06  .515361841393D+04
     .136800000000D+06  .447034835815D-07  .220621097777D+01 -.782310962677D-07
     .970371526612D+00  .374718750000D+03  .287753265311D+01 -.849321091918D-08
    -.314655963827D-09  .100000000000D+01  .152900000000D+04  .000000000000D+00
     .240000000000D+01  .000000000000D+00 -.200234353542D-07  .280000000000D+02
     .129606000000D+06  .400000000000D+01
24 09  4 27 14  0  0.0  .184482429177D-03  .295585778076D-11  .000000000000D+00
     .290000000000D+02  .449687500000D+02  .457590489052D-08  .246761937194D+01
     .241212546825D-05  .674588466063D-02  .118315219879D-04  .515368270683D+04
     .136800000000D+06  .391155481339D-07  .156516064848D+00  .106170773506D-06
     .951333183874D+00  .144125000000D+03 -.645083854835D+00 -.779925344164D-08
    -.541093967307D-09  .100000000000D+01  .152900000000D+04  .000000000000D+00
     .240000000000D+01  .000000000000D+00 -.139698386192D-08  .290000000000D+02
     .129606000000D+06  .400000000000D+01
25 09  4 27 14  0  0.0  .382293015718D-03  .205773176276D-10  .000000000000D+00
     .270000000000D+02 -.149593750000D+03  .375158484000D-08  .296387787295D+01
    -.765547156334D-05  .115268270019D-01  .938773155212D-05  .515366378403D+04
     .136800000000D+06  .633299350739D-07 -.312973314830D+01  .596046447754D-07
     .969632767611D+00  .201281250000D+03 -.120790858094D+01 -.752852787912D-08
    -.179650340301D-09  .100000000000D+01  .152900000000D+04  .000000000000D+00
     .240000000000D+01  .000000000000D+00 -.745058059692D-08  .270000000000D+02
     .129606000000D+06  .400000000000D+01
26 09  4 27 14  0  0.0  .586784444749D-04  .159161572810D-11  .000000000000D+00
     .640000000000D+02 -.424375000000D+02  .409909931537D-08 -.928285888228D+00
    -.194646418095D-05  .203995388001D-01  .812113285065D-06  .515487228394D+04
     .136800000000D+06  .117346644402D-06  .225521463140D+01  .495463609695D-06
     .992720918171D+00  .376906250000D+03  .998256225676D+00 -.835034782550D-08
    -.325370695853D-09  .100000000000D+01  .152900000000D+04  .000000000000D+00
     .240000000000D+01  .000000000000D+00 -.651925802231D-08  .640000000000D+02
     .129606000000D+06  .400000000000D+01
28 09  4 27 14  0  0.0 -.243191607296D-04 -.341060513165D-12  .000000000000D+00
     .740000000000D+02 -.871875000000D+01  .437411077070D-08  .176401757972D+01
    -.476837158203D-06  .148462855723D-01  .913813710213D-05  .515363999557D+04
     .136800000000D+06 -.268220901489D-06 -.195859869984D+01 -.247731804848D-06
     .966066147001D+00  .206187500000D+03 -.202868786866D+01 -.782175437889D-08
     .788961434839D-09  .100000000000D+01  .152900000000D+04  .000000000000D+00
     .240000000000D+01  .000000000000D+00 -.107102096081D-07  .740000000000D+02
     .129606000000D+06  .400000000000D+01
29 09  4 27 14  0  0.0  .141789205372D-04  .397903932026D-11  .000000000000D+00
     .260000000000D+02 -.137812500000D+02  .498056460336D-08 -.242920024953D+01
    -.666826963425D-06  .342780223582D-02  .533275306225D-05  .515368309021D+04
     .136800000000D+06 -.260770320892D-07 -.915988607631D+00  .894069671631D-07
     .959711077259D+00  .271062500000D+03 -.133420407031D+01 -.810105172704D-08
    -.303584074067D-10  .100000000000D+01  .152900000000D+04  .000000000000D+00
     .240000000000D+01  .000000000000D+00 -.884756445885D-08  .260000000000D+02
     .129606000000D+06  .400000000000D+01
30 09  4 27 14  0  0.0  .142189674079D-03  .261479726760D-11  .000000000000D+00
     .560000000000D+02 -.868750000000D+01  .449911597767D-08  .223572610050D+01
    -.450760126114D-06  .113079731818D-01  .918470323086D-05  .515360564995D+04
     .136800000000D+06  .236555933952D-06 -.203101749987D+01 -.141561031342D-06
     .951485543866D+00  .196750000000D+03  .141377747456D+01 -.773317926081D-08
     .735030616976D-09  .100000000000D+01  .152900000000D+04  .000000000000D+00
     .240000000000D+01  .000000000000D+00 -.838190317154D-08  .560000000000D+02
     .129606000000D+06  .400000000000D+01
31 09  4 27 14  0  0.0 -.588293187320D-04 -.102318153949D-11  .000000000000D+00
     .980000000000D+02 -.117187500000D+03  .387694720470D-08 -.163947788901D+01
    -.604242086411D-05  .711568410043D-02  .940077006817D-05  .515370499039D+04
     .136800000000D+06 -.968575477600D-07 -.303750627363D+01  .122934579849D-06
     .972741026728D+00  .207343750000D+03 -.114698490110D+01 -.780068207258D-08
    -.607168148133D-11  .100000000000D+01  .152900000000D+04  .000000000000D+00
     .340000000000D+01  .000000000000D+00 -.130385160446D-07  .980000000000D+02
     .129606000000D+06  .400000000000D+01
32 09  4 27 14  0  0.0  .269158277661D-03 -.500222085975D-11  .000000000000D+00
     .124000000000D+03  .126437500000D+03  .463840749400D-08 -.731084576493D+00
     .677071511745D-05  .133465153631D-01  .424124300480D-05  .515358519554D+04
     .136800000000D+06 -.147148966789D-06  .123826579149D+01 -.428408384323D-07
     .964289175520D+00  .301937500000D+03 -.117365713658D+01 -.845035199108D-08
     .246795994329D-09  .100000000000D+01  .152900000000D+04  .000000000000D+00
     .340000000000D+01  .000000000000D+00 -.325962901115D-08  .124000000000D+03
     .129606000000D+06  .400000000000D+01
32 09  4 27 13 59 44.0  .269158743322D-03 -.500222085975D-11  .000000000000D+00
     .150000000000D+02  .126437500000D+03  .463840749400D-08 -.733418867097D+00
     .677071511745D-05  .133465185063D-01  .424124300480D-05  .515358520889D+04
     .136784000000D+06 -.147148966789D-06  .123826593925D+01 -.428408384323D-07
     .964289174058D+00  .301937500000D+03 -.117365685716D+01 -.845035199108D-08
     .246795994329D-09  .100000000000D+01  .152900000000D+04  .000000000000D+00
     .240000000000D+01  .000000000000D+00 -.325962901115D-08  .150000000000D+02
     .132486000000D+06  .400000000000D+01
 5 09  4 27 13 59 44.0 -.512390397489D-04 -.162572177942D-10  .000000000000D+00
     .200000000000D+02 -.186875000000D+02  .460269172058D-08  .278178584247D+01
    -.936910510063D-06  .956175685860D-02  .947341322899D-05  .515357488060D+04
     .136784000000D+06  .119209289551D-06 -.208479439772D+01 -.186264514923D-07
     .945661296875D+00  .188468750000D+03  .129995200276D+01 -.773282210308D-08
     .697171897151D-09  .100000000000D+01  .152900000000D+04  .000000000000D+00
     .240000000000D+01  .630000000000D+02 -.419095158577D-08  .200000000000D+02
     .133986000000D+06  .400000000000D+01
 5 09  4 27 15 59 44.0 -.513563863933D-04 -.163709046319D-10  .000000000000D+00
     .320000000000D+02 -.220000000000D+02  .457304762865D-08 -.245112201258D+01
    -.110454857349D-05  .956136395689D-02  .962056219578D-05  .515357569695D+04
     .143984000000D+06  .111758708954D-06 -.208484993595D+01 -.279396772385D-07
     .945666259093D+00  .184375000000D+03  .129991639679D+01 -.772925052574D-08
     .679314010441D-09  .100000000000D+01  .152900000000D+04  .000000000000D+00
     .240000000000D+01  .630000000000D+02 -.419095158577D-08  .320000000000D+02
     .136806000000D+06  .400000000000D+01
32 09  4 27 15 59 44.0  .269122887403D-03 -.500222085975D-11  .000000000000D+00
     .160000000000D+02  .119062500000D+03  .463912180947D-08  .316840447779D+00
     .628456473351D-05  .133486668346D-01  .515580177307D-05  .515358936501D+04
     .143984000000D+06 -.109896063805D-06  .123820535981D+01 -.122934579849D-06
     .964290686715D+00  .288218750000D+03 -.117368160389D+01 -.846142388084D-08
     .184650548579D-09  .100000000000D+01  .152900000000D+04  .000000000000D+00
     .240000000000D+01  .000000000000D+00 -.325962901115D-08  .160000000000D+02
     .136806000000D+06  .400000000000D+01
 1 09  4 27 16  0  0.0 -.735069625080D-04  .100044417195D-10  .000000000000D+00
     .850000000000D+02 -.148437500000D+02  .435446709532D-08 -.244015565096D+01
    -.735744833946D-06  .329752743710D-02  .913254916668D-05  .515376519966D+04
     .144000000000D+06 -.204890966415D-07 -.199569268326D+01 -.745058059692D-08
     .960300912662D+00  .204218750000D+03  .894477438873D+00 -.769389191005D-08
     .671099382554D-09  .100000000000D+01  .152900000000D+04  .000000000000D+00
     .485000000000D+01  .630000000000D+02 -.130385160446D-07  .850000000000D+02
     .136806000000D+06  .400000000000D+01
 2 09  4 27 16  0  0.0  .153641216457D-03  .227373675443D-12  .000000000000D+00
     .190000000000D+02  .482812500000D+02  .487627454498D-08  .129983032308D+01
     .245496630669D-05  .906170357484D-02  .108275562525D-04  .515364999962D+04
     .144000000000D+06  .122934579849D-06  .931071680701D-01  .540167093277D-07
     .941939434324D+00  .160531250000D+03  .279264147728D+01 -.792997317236D-08
    -.571809532448D-09  .100000000000D+01  .152900000000D+04  .000000000000D+00
     .240000000000D+01  .000000000000D+00 -.172294676304D-07  .190000000000D+02
     .136806000000D+06  .400000000000D+01
 3 09  4 27 16  0  0.0  .385295134038D-03  .511590769747D-11  .000000000000D+00
     .250000000000D+02 -.793750000000D+01  .583702884997D-08  .946923986819D+00
    -.461935997009D-06  .118040129310D-01  .514090061188D-05  .515374011230D+04
     .144000000000D+06 -.875443220139D-07 -.105404798597D+01  .109896063805D-06
     .925956597878D+00  .262625000000D+03  .897143889415D+00 -.881465287996D-08
    -.696457581682D-10  .100000000000D+01  .152900000000D+04  .000000000000D+00
     .340000000000D+01  .000000000000D+00 -.419095158577D-08  .250000000000D+02
     .136806000000D+06  .400000000000D+01
